{
  "type": "FeatureCollection",
  "features": [
    {
      "type": "Feature",
      "properties": {
        "norad_id": 34482,
        "name": "COSMOS 2251 DEB",
        "group": "cosmos-2251-debris",
        "lat": -15.361672110691652,
        "lon": 21.725888143704566,
        "alt_km": 651.0099844310153,
        "timestamp": "2025-12-26T08:37:54.974129+00:00",
        "meta_object_name": "COSMOS 2251 DEB",
        "meta_object_id": "1993-036UB",
        "meta_epoch": "2025-12-26T00:15:45.284256",
        "meta_mean_motion": 14.6943455,
        "meta_eccentricity": 0.0044269,
        "meta_inclination": 74.036,
        "meta_ra_of_asc_node": 197.8906,
        "meta_arg_of_pericenter": 255.4286,
        "meta_mean_anomaly": 256.9105,
        "meta_ephemeris_type": 0,
        "meta_classification_type": "U",
        "meta_norad_cat_id": 34482,
        "meta_element_set_no": 999,
        "meta_rev_at_epoch": 88382,
        "meta_bstar": 0.0016911,
        "meta_mean_motion_dot": 0.00010147,
        "meta_mean_motion_ddot": 0,
        "tle_line1": "1 34482U 93036UB  25360.01094079  .00010147  00000+0  16911-2 0  9990",
        "tle_line2": "2 34482  74.0360 197.8906 0044269 255.4286 256.9105 14.69434550883828"
      },
      "geometry": {
        "type": "Point",
        "coordinates": [
          21.725888143704566,
          -15.361672110691652
        ]
      }
    },
    {
      "type": "Feature",
      "properties": {
        "norad_id": 34544,
        "name": "COSMOS 2251 DEB",
        "group": "cosmos-2251-debris",
        "lat": -45.09647197335219,
        "lon": 18.810469369846388,
        "alt_km": 791.3695191557181,
        "timestamp": "2025-12-26T08:37:54.974139+00:00",
        "meta_object_name": "COSMOS 2251 DEB",
        "meta_object_id": "1993-036UE",
        "meta_epoch": "2025-12-22T13:17:43.726848",
        "meta_mean_motion": 13.54671118,
        "meta_eccentricity": 0.03836445,
        "meta_inclination": 73.9138,
        "meta_ra_of_asc_node": 188.1407,
        "meta_arg_of_pericenter": 214.797,
        "meta_mean_anomaly": 178.3987,
        "meta_ephemeris_type": 0,
        "meta_classification_type": "U",
        "meta_norad_cat_id": 34544,
        "meta_element_set_no": 999,
        "meta_rev_at_epoch": 83015,
        "meta_bstar": 0.00039748277,
        "meta_mean_motion_dot": 4.13e-06,
        "meta_mean_motion_ddot": 0,
        "tle_line1": "1 34544U 93036UE  25356.55397832  .00000413  00000+0  39748-3 0  9995",
        "tle_line2": "2 34544  73.9138 188.1407 0383644 214.7970 178.3987 13.54671118830157"
      },
      "geometry": {
        "type": "Point",
        "coordinates": [
          18.810469369846388,
          -45.09647197335219
        ]
      }
    },
    {
      "type": "Feature",
      "properties": {
        "norad_id": 34546,
        "name": "COSMOS 2251 DEB",
        "group": "cosmos-2251-debris",
        "lat": -54.83221294713683,
        "lon": -160.19207287433693,
        "alt_km": 731.5524655058307,
        "timestamp": "2025-12-26T08:37:54.974149+00:00",
        "meta_object_name": "COSMOS 2251 DEB",
        "meta_object_id": "1993-036UG",
        "meta_epoch": "2025-12-25T18:29:57.837984",
        "meta_mean_motion": 14.45461725,
        "meta_eccentricity": 0.00220624,
        "meta_inclination": 74.0292,
        "meta_ra_of_asc_node": 224.888,
        "meta_arg_of_pericenter": 297.215,
        "meta_mean_anomaly": 181.6117,
        "meta_ephemeris_type": 0,
        "meta_classification_type": "U",
        "meta_norad_cat_id": 34546,
        "meta_element_set_no": 999,
        "meta_rev_at_epoch": 88214,
        "meta_bstar": 0.00052557969,
        "meta_mean_motion_dot": 1.83e-05,
        "meta_mean_motion_ddot": 0,
        "tle_line1": "1 34546U 93036UG  25359.77080831  .00001830  00000+0  52558-3 0  9990",
        "tle_line2": "2 34546  74.0292 224.8880 0022062 297.2150 181.6117 14.45461725882145"
      },
      "geometry": {
        "type": "Point",
        "coordinates": [
          -160.19207287433693,
          -54.83221294713683
        ]
      }
    },
    {
      "type": "Feature",
      "properties": {
        "norad_id": 34547,
        "name": "COSMOS 2251 DEB",
        "group": "cosmos-2251-debris",
        "lat": 14.630189751118921,
        "lon": 78.49258145783547,
        "alt_km": 661.3459402895096,
        "timestamp": "2025-12-26T08:37:54.974159+00:00",
        "meta_object_name": "COSMOS 2251 DEB",
        "meta_object_id": "1993-036UH",
        "meta_epoch": "2025-12-24T22:19:25.423968",
        "meta_mean_motion": 14.7260031,
        "meta_eccentricity": 0.00159248,
        "meta_inclination": 74.0301,
        "meta_ra_of_asc_node": 76.9883,
        "meta_arg_of_pericenter": 154.8954,
        "meta_mean_anomaly": 205.2996,
        "meta_ephemeris_type": 0,
        "meta_classification_type": "U",
        "meta_norad_cat_id": 34547,
        "meta_element_set_no": 999,
        "meta_rev_at_epoch": 88701,
        "meta_bstar": 0.0017419579,
        "meta_mean_motion_dot": 0.00011095,
        "meta_mean_motion_ddot": 0,
        "tle_line1": "1 34547U 93036UH  25358.93015537  .00011095  00000+0  17420-2 0  9991",
        "tle_line2": "2 34547  74.0301  76.9883 0015924 154.8954 205.2996 14.72600310887019"
      },
      "geometry": {
        "type": "Point",
        "coordinates": [
          78.49258145783547,
          14.630189751118921
        ]
      }
    },
    {
      "type": "Feature",
      "properties": {
        "norad_id": 34553,
        "name": "COSMOS 2251 DEB",
        "group": "cosmos-2251-debris",
        "lat": -73.92846622300345,
        "lon": 82.07407900288067,
        "alt_km": 695.3216544183724,
        "timestamp": "2025-12-26T08:37:54.974168+00:00",
        "meta_object_name": "COSMOS 2251 DEB",
        "meta_object_id": "1993-036UP",
        "meta_epoch": "2025-12-25T06:57:12.875040",
        "meta_mean_motion": 14.57837917,
        "meta_eccentricity": 0.0019052,
        "meta_inclination": 74.0247,
        "meta_ra_of_asc_node": 168.0129,
        "meta_arg_of_pericenter": 244.6588,
        "meta_mean_anomaly": 173.9692,
        "meta_ephemeris_type": 0,
        "meta_classification_type": "U",
        "meta_norad_cat_id": 34553,
        "meta_element_set_no": 999,
        "meta_rev_at_epoch": 88279,
        "meta_bstar": 0.0012016,
        "meta_mean_motion_dot": 5.49e-05,
        "meta_mean_motion_ddot": 0,
        "tle_line1": "1 34553U 93036UP  25359.28973235  .00005490  00000+0  12016-2 0  9993",
        "tle_line2": "2 34553  74.0247 168.0129 0019052 244.6588 173.9692 14.57837917882790"
      },
      "geometry": {
        "type": "Point",
        "coordinates": [
          82.07407900288067,
          -73.92846622300345
        ]
      }
    },
    {
      "type": "Feature",
      "properties": {
        "norad_id": 34554,
        "name": "COSMOS 2251 DEB",
        "group": "cosmos-2251-debris",
        "lat": 50.90665533917254,
        "lon": 73.28962218119487,
        "alt_km": 775.0827532820867,
        "timestamp": "2025-12-26T08:37:54.974181+00:00",
        "meta_object_name": "COSMOS 2251 DEB",
        "meta_object_id": "1993-036UQ",
        "meta_epoch": "2025-12-24T19:36:15.128928",
        "meta_mean_motion": 14.37961289,
        "meta_eccentricity": 0.00235133,
        "meta_inclination": 74.0392,
        "meta_ra_of_asc_node": 276.7537,
        "meta_arg_of_pericenter": 336.7983,
        "meta_mean_anomaly": 85.7272,
        "meta_ephemeris_type": 0,
        "meta_classification_type": "U",
        "meta_norad_cat_id": 34554,
        "meta_element_set_no": 999,
        "meta_rev_at_epoch": 87929,
        "meta_bstar": 0.0002967342,
        "meta_mean_motion_dot": 8.73e-06,
        "meta_mean_motion_ddot": 0,
        "tle_line1": "1 34554U 93036UQ  25358.81684177  .00000873  00000+0  29673-3 0  9994",
        "tle_line2": "2 34554  74.0392 276.7537 0023513 336.7983  85.7272 14.37961289879294"
      },
      "geometry": {
        "type": "Point",
        "coordinates": [
          73.28962218119487,
          50.90665533917254
        ]
      }
    },
    {
      "type": "Feature",
      "properties": {
        "norad_id": 34556,
        "name": "COSMOS 2251 DEB",
        "group": "cosmos-2251-debris",
        "lat": 73.65880373701127,
        "lon": 175.94424379656536,
        "alt_km": 626.1603449039058,
        "timestamp": "2025-12-26T08:37:54.974192+00:00",
        "meta_object_name": "COSMOS 2251 DEB",
        "meta_object_id": "1993-036US",
        "meta_epoch": "2025-12-25T18:11:23.460288",
        "meta_mean_motion": 14.78196748,
        "meta_eccentricity": 0.00060913,
        "meta_inclination": 74.0153,
        "meta_ra_of_asc_node": 99.2627,
        "meta_arg_of_pericenter": 158.9278,
        "meta_mean_anomaly": 326.8318,
        "meta_ephemeris_type": 0,
        "meta_classification_type": "U",
        "meta_norad_cat_id": 34556,
        "meta_element_set_no": 999,
        "meta_rev_at_epoch": 88521,
        "meta_bstar": 0.0022472173,
        "meta_mean_motion_dot": 0.00016304,
        "meta_mean_motion_ddot": 0,
        "tle_line1": "1 34556U 93036US  25359.75791042  .00016304  00000+0  22472-2 0  9995",
        "tle_line2": "2 34556  74.0153  99.2627 0006091 158.9278 326.8318 14.78196748885216"
      },
      "geometry": {
        "type": "Point",
        "coordinates": [
          175.94424379656536,
          73.65880373701127
        ]
      }
    }
  ]
}